{
  "type": "FeatureCollection",
  "features": [
    {
      "type": "Feature",
      "properties": {
        "norad_id": 33886,
        "name": "IRIDIUM 33 DEB",
        "group": "iridium-33-debris",
        "lat": -79.16552807640191,
        "lon": 44.15395210797973,
        "alt_km": 775.8641887689719,
        "timestamp": "2025-12-21T16:47:55.123405+00:00",
        "meta_object_name": "IRIDIUM 33 DEB",
        "meta_object_id": "1997-051BF",
        "meta_epoch": "2025-12-21T04:03:59.785344",
        "meta_mean_motion": 14.36060793,
        "meta_eccentricity": 0.00130464,
        "meta_inclination": 86.3823,
        "meta_ra_of_asc_node": 63.6806,
        "meta_arg_of_pericenter": 211.4193,
        "meta_mean_anomaly": 207.8203,
        "meta_ephemeris_type": 0,
        "meta_classification_type": "U",
        "meta_norad_cat_id": 33886,
        "meta_element_set_no": 999,
        "meta_rev_at_epoch": 88173,
        "meta_bstar": 0.00013446933,
        "meta_mean_motion_dot": 4.11e-06,
        "meta_mean_motion_ddot": 0,
        "tle_line1": "1 33886U 97051BF  25355.16944196  .00000411  00000+0  13447-3 0  9997",
        "tle_line2": "2 33886  86.3823  63.6806 0013046 211.4193 207.8203 14.36060793881732"
      },
      "geometry": {
        "type": "Point",
        "coordinates": [
          44.15395210797973,
          -79.16552807640191
        ]
      }
    },
    {
      "type": "Feature",
      "properties": {
        "norad_id": 33887,
        "name": "IRIDIUM 33 DEB",
        "group": "iridium-33-debris",
        "lat": -73.6719346956826,
        "lon": -167.7227690555668,
        "alt_km": 773.3186650900243,
        "timestamp": "2025-12-21T16:47:55.123415+00:00",
        "meta_object_name": "IRIDIUM 33 DEB",
        "meta_object_id": "1997-051BG",
        "meta_epoch": "2025-12-21T12:52:53.713056",
        "meta_mean_motion": 14.37228392,
        "meta_eccentricity": 0.0005369,
        "meta_inclination": 86.3041,
        "meta_ra_of_asc_node": 359.6009,
        "meta_arg_of_pericenter": 191.7702,
        "meta_mean_anomaly": 298.3026,
        "meta_ephemeris_type": 0,
        "meta_classification_type": "U",
        "meta_norad_cat_id": 33887,
        "meta_element_set_no": 999,
        "meta_rev_at_epoch": 88291,
        "meta_bstar": 0.00012024,
        "meta_mean_motion_dot": 3.78e-06,
        "meta_mean_motion_ddot": 0,
        "tle_line1": "1 33887U 97051BG  25355.53673279  .00000378  00000+0  12024-3 0  9992",
        "tle_line2": "2 33887  86.3041 359.6009 0005369 191.7702 298.3026 14.37228392882914"
      },
      "geometry": {
        "type": "Point",
        "coordinates": [
          -167.7227690555668,
          -73.6719346956826
        ]
      }
    },
    {
      "type": "Feature",
      "properties": {
        "norad_id": 33953,
        "name": "IRIDIUM 33 DEB",
        "group": "iridium-33-debris",
        "lat": -26.42846715989255,
        "lon": 48.08943918569317,
        "alt_km": 716.4188793333187,
        "timestamp": "2025-12-21T16:47:55.123425+00:00",
        "meta_object_name": "IRIDIUM 33 DEB",
        "meta_object_id": "1997-051BN",
        "meta_epoch": "2025-12-21T03:57:52.116192",
        "meta_mean_motion": 14.55395308,
        "meta_eccentricity": 0.00178869,
        "meta_inclination": 86.3839,
        "meta_ra_of_asc_node": 50.1227,
        "meta_arg_of_pericenter": 77.1433,
        "meta_mean_anomaly": 336.6692,
        "meta_ephemeris_type": 0,
        "meta_classification_type": "U",
        "meta_norad_cat_id": 33953,
        "meta_element_set_no": 999,
        "meta_rev_at_epoch": 88426,
        "meta_bstar": 0.0006943937,
        "meta_mean_motion_dot": 3.042e-05,
        "meta_mean_motion_ddot": 0,
        "tle_line1": "1 33953U 97051BN  25355.16518653  .00003042  00000+0  69439-3 0  9992",
        "tle_line2": "2 33953  86.3839  50.1227 0017886  77.1433 336.6692 14.55395308884260"
      },
      "geometry": {
        "type": "Point",
        "coordinates": [
          48.08943918569317,
          -26.42846715989255
        ]
      }
    },
    {
      "type": "Feature",
      "properties": {
        "norad_id": 33960,
        "name": "IRIDIUM 33 DEB",
        "group": "iridium-33-debris",
        "lat": 25.700372695406394,
        "lon": -72.90482039228053,
        "alt_km": 606.1546671544038,
        "timestamp": "2025-12-21T16:47:55.123436+00:00",
        "meta_object_name": "IRIDIUM 33 DEB",
        "meta_object_id": "1997-051BV",
        "meta_epoch": "2025-12-21T02:11:40.664832",
        "meta_mean_motion": 14.85568668,
        "meta_eccentricity": 0.00073568,
        "meta_inclination": 86.2542,
        "meta_ra_of_asc_node": 285.5753,
        "meta_arg_of_pericenter": 46.9215,
        "meta_mean_anomaly": 326.8092,
        "meta_ephemeris_type": 0,
        "meta_classification_type": "U",
        "meta_norad_cat_id": 33960,
        "meta_element_set_no": 999,
        "meta_rev_at_epoch": 88991,
        "meta_bstar": 0.0019890086,
        "meta_mean_motion_dot": 0.00017252,
        "meta_mean_motion_ddot": 0,
        "tle_line1": "1 33960U 97051BV  25355.09144288  .00017252  00000+0  19890-2 0  9994",
        "tle_line2": "2 33960  86.2542 285.5753 0007356  46.9215 326.8092 14.85568668889915"
      },
      "geometry": {
        "type": "Point",
        "coordinates": [
          -72.90482039228053,
          25.700372695406394
        ]
      }
    },
    {
      "type": "Feature",
      "properties": {
        "norad_id": 33966,
        "name": "IRIDIUM 33 DEB",
        "group": "iridium-33-debris",
        "lat": -84.18748190961786,
        "lon": 3.8697463267524146,
        "alt_km": 736.8005460398026,
        "timestamp": "2025-12-21T16:47:55.123447+00:00",
        "meta_object_name": "IRIDIUM 33 DEB",
        "meta_object_id": "1997-051CB",
        "meta_epoch": "2025-12-21T08:58:20.862048",
        "meta_mean_motion": 14.49625093,
        "meta_eccentricity": 0.0008376,
        "meta_inclination": 86.3913,
        "meta_ra_of_asc_node": 42.3217,
        "meta_arg_of_pericenter": 161.0554,
        "meta_mean_anomaly": 212.7611,
        "meta_ephemeris_type": 0,
        "meta_classification_type": "U",
        "meta_norad_cat_id": 33966,
        "meta_element_set_no": 999,
        "meta_rev_at_epoch": 88567,
        "meta_bstar": 0.00039237,
        "meta_mean_motion_dot": 1.527e-05,
        "meta_mean_motion_ddot": 0,
        "tle_line1": "1 33966U 97051CB  25355.37385257  .00001527  00000+0  39237-3 0  9990",
        "tle_line2": "2 33966  86.3913  42.3217 0008376 161.0554 212.7611 14.49625093885671"
      },
      "geometry": {
        "type": "Point",
        "coordinates": [
          3.8697463267524146,
          -84.18748190961786
        ]
      }
    },
    {
      "type": "Feature",
      "properties": {
        "norad_id": 34071,
        "name": "IRIDIUM 33 DEB",
        "group": "iridium-33-debris",
        "lat": -23.398968860066933,
        "lon": 12.348541716766169,
        "alt_km": 734.8468169478147,
        "timestamp": "2025-12-21T16:47:55.123457+00:00",
        "meta_object_name": "IRIDIUM 33 DEB",
        "meta_object_id": "1997-051CE",
        "meta_epoch": "2025-12-21T11:56:10.309056",
        "meta_mean_motion": 14.49500102,
        "meta_eccentricity": 0.000992,
        "meta_inclination": 86.3449,
        "meta_ra_of_asc_node": 14.0216,
        "meta_arg_of_pericenter": 83.977,
        "meta_mean_anomaly": 276.2565,
        "meta_ephemeris_type": 0,
        "meta_classification_type": "U",
        "meta_norad_cat_id": 34071,
        "meta_element_set_no": 999,
        "meta_rev_at_epoch": 88461,
        "meta_bstar": 0.00045868,
        "meta_mean_motion_dot": 1.778e-05,
        "meta_mean_motion_ddot": 0,
        "tle_line1": "1 34071U 97051CE  25355.49734154  .00001778  00000+0  45868-3 0  9990",
        "tle_line2": "2 34071  86.3449  14.0216 0009920  83.9770 276.2565 14.49500102884615"
      },
      "geometry": {
        "type": "Point",
        "coordinates": [
          12.348541716766169,
          -23.398968860066933
        ]
      }
    },
    {
      "type": "Feature",
      "properties": {
        "norad_id": 34077,
        "name": "IRIDIUM 33 DEB",
        "group": "iridium-33-debris",
        "lat": -44.87714697149036,
        "lon": 43.951224076201974,
        "alt_km": 680.4401560481956,
        "timestamp": "2025-12-21T16:47:55.123468+00:00",
        "meta_object_name": "IRIDIUM 33 DEB",
        "meta_object_id": "1997-051CL",
        "meta_epoch": "2025-12-21T03:59:30.922368",
        "meta_mean_motion": 14.64919607,
        "meta_eccentricity": 0.00092333,
        "meta_inclination": 86.385,
        "meta_ra_of_asc_node": 47.7954,
        "meta_arg_of_pericenter": 12.3417,
        "meta_mean_anomaly": 10.5487,
        "meta_ephemeris_type": 0,
        "meta_classification_type": "U",
        "meta_norad_cat_id": 34077,
        "meta_element_set_no": 999,
        "meta_rev_at_epoch": 88456,
        "meta_bstar": 0.00074353434,
        "meta_mean_motion_dot": 3.999e-05,
        "meta_mean_motion_ddot": 0,
        "tle_line1": "1 34077U 97051CL  25355.16633012  .00003999  00000+0  74353-3 0  9999",
        "tle_line2": "2 34077  86.3850  47.7954 0009233  12.3417  10.5487 14.64919607884567"
      },
      "geometry": {
        "type": "Point",
        "coordinates": [
          43.951224076201974,
          -44.87714697149036
        ]
      }
    }
  ]
}